STARLINK-1023_new
1 14728C 19074R   21326.14274674  .00081187  00000-0  26687-3 0  3266
2 14728  53.0524 341.4063 0004950 288.7369 184.8917 15.89676657    17
STARLINK-1023_old
1 24728C 19074R   21325.13804705 -.00690296  00000-0 -23579-2 0  3252
2 24728  53.0543 346.5103 0002239   1.1724 118.2877 15.89707077    16
